[{"OBJECT_NAME":"STARLINK-34964","OBJECT_ID":"2025-179E","EPOCH":"2026-03-09T16:34:15.186720","MEAN_MOTION":15.05664519,"ECCENTRICITY":0.00012328,"INCLINATION":97.6023,"RA_OF_ASC_NODE":112.8903,"ARG_OF_PERICENTER":134.1266,"MEAN_ANOMALY":226.0062,"EPHEMERIS_TYPE":0,"CLASSIFICATION_TYPE":"U","NORAD_CAT_ID":65239,"ELEMENT_SET_NO":999,"REV_AT_EPOCH":3181,"BSTAR":0.00028840105,"MEAN_MOTION_DOT":4.105e-5,"MEAN_MOTION_DDOT":0},{"OBJECT_NAME":"OBJECT Z","OBJECT_ID":"2017-042Z","EPOCH":"2026-03-09T21:17:53.130336","MEAN_MOTION":15.06776019,"ECCENTRICITY":0.00062541,"INCLINATION":97.3821,"RA_OF_ASC_NODE":235.9429,"ARG_OF_PERICENTER":50.1524,"MEAN_ANOMALY":310.0253,"EPHEMERIS_TYPE":0,"CLASSIFICATION_TYPE":"U","NORAD_CAT_ID":42848,"ELEMENT_SET_NO":999,"REV_AT_EPOCH":47228,"BSTAR":0.00039314781,"MEAN_MOTION_DOT":5.795e-5,"MEAN_MOTION_DDOT":0}]
